IRNSS-1I                
1 43286U 18035A   22096.63313387  .00000105  00000+0  00000+0 0  9997
2 43286  28.9175  98.5100 0020222 189.9684 189.4162  1.00274624 14713
COSMOS 2527 (756)       
1 43508U 18053A   22096.74623758  .00000034  00000+0  00000+0 0  9993
2 43508  64.9515 125.2422 0009561 240.0531 322.9721  2.13102548 29616
BEIDOU IGSO-7 (C16)     
1 43539U 18057A   22096.71967163 -.00000125  00000+0  00000+0 0  9991
2 43539  55.0730 176.3409 0047083 225.1137 164.0431  1.00279909 13795
GSAT0221 (PRN E15)      
1 43564U 18060A   22090.45222770 -.00000106  00000+0  00000+0 0  9995
2 43564  57.1465  23.2962 0004541 301.0356  58.9018  1.70475467 22936
GSAT0222 (PRN E33)      
1 43565U 18060B   22094.77820471 -.00000099  00000+0  00000+0 0  9998
2 43565  57.1509  23.1796 0004387 311.3438  48.6144  1.70475562 23059
GSAT0219 (PRN E36)      
1 43566U 18060C   22095.58536143 -.00000097  00000+0  00000+0 0  9997
2 43566  57.1513  23.1596 0004076 314.3323  45.6323  1.70475605 23047
GSAT0220 (PRN E13)      
1 43567U 18060D   22096.39201530 -.00000095  00000+0  00000+0 0  9995
2 43567  57.1512  23.1382 0004057 309.2550  50.7088  1.70475684 23046
BEIDOU-3 M9 (C23)       
1 43581U 18062A   22096.63904002  .00000013  00000+0  00000+0 0  9993
2 43581  54.2992 234.5417 0001895 299.6857  56.3512  1.86231803 25088
BEIDOU-3 M10 (C24)      
1 43582U 18062B   22096.50533462  .00000013  00000+0  00000+0 0  9998
2 43582  54.2998 234.5357 0005660  22.8648 335.2501  1.86232048 25085
BEIDOU-3 M11 (C25)      
1 43602U 18067A   22096.97182490  .00000012  00000+0  00000+0 0  9997
2 43602  54.3799 233.1280 0007223  14.7032 337.7000  1.86231587 24584
BEIDOU-3 M12 (C26)      
1 43603U 18067B   22096.59451774  .00000013  00000+0  00000+0 0  9991
2 43603  54.3773 233.1078 0004343   9.0960   0.7303  1.86231562 24608
BEIDOU-3 M13 (C32)      
1 43622U 18072A   22096.70464965  .00000016  00000+0  00000+0 0  9990
2 43622  55.4365 113.7632 0008791 284.6711 188.4814  1.86231536 24111
BEIDOU-3 M14 (C33)      
1 43623U 18072B   22096.32229955  .00000014  00000+0  00000+0 0  9995
2 43623  55.4384 113.7683 0006572 302.3156   4.7221  1.86231503 24100
BEIDOU-3 M15 (C34)      
1 43647U 18078A   22096.61940525 -.00000110  00000+0  10000-3 0  9995
2 43647  55.1455 353.0580 0007708   4.0697  37.6304  1.86232897 23625
BEIDOU-3 M16 (C35)      
1 43648U 18078B   22096.96299494 -.00000109  00000+0  00000+0 0  9999
2 43648  55.1423 353.0541 0005717  10.9506 169.0378  1.86232162 23649
BEIDOU-3 G1 (C59)       
1 43683U 18085A   22096.84792380 -.00000281  00000+0  00000+0 0  9996
2 43683   0.8435 178.7625 0002610 323.1976 138.3560  1.00267662 12696
COSMOS 2529 (757)       
1 43687U 18086A   22096.67235185  .00000035  00000+0  00000+0 0  9993
2 43687  64.3808 244.6090 0007534 272.0587 157.6876  2.13102043 26637
BEIDOU-3 M17 (C36)      
1 43706U 18093A   22096.84629743  .00000013  00000+0  00000+0 0  9995
2 43706  54.3810 234.4149 0007881 275.7041  84.1737  1.86232011 23009
BEIDOU-3 M18 (C37)      
1 43707U 18093B   22096.70602356  .00000013  00000+0  00000+0 0  9992
2 43707  54.3820 234.4100 0006612 312.1691  44.8107  1.86232090 22983
GPS BIII-1  (PRN 04)    
1 43873U 18109A   22096.61214289  .00000004  00000+0  00000+0 0  9998
2 43873  55.0740 152.7297 0018173 195.7846 332.8635  2.00568162 24333
BEIDOU-3 IGSO-1 (C38)   
1 44204U 19023A   22096.77213123 -.00000205  00000+0  00000+0 0  9990
2 44204  56.4568  53.7399 0020004 205.4202 333.1041  1.00279464 10994
BEIDOU-2 G8             
1 44231U 19027A   22096.92057650 -.00000248  00000+0  00000+0 0  9999
2 44231   0.6940  72.6273 0004279 140.6357  97.8112  1.00275689 10704
COSMOS 2534 (758)       
1 44299U 19030A   22096.93397626  .00000035  00000+0  00000+0 0  9991
2 44299  64.4522 244.4780 0010506 295.3565 109.7162  2.13101966 22288
BEIDOU-3 IGSO-2 (C39)   
1 44337U 19035A   22096.76617405 -.00000129  00000+0  00000+0 0  9995
2 44337  55.1124 172.3643 0022993 193.7761 223.9057  1.00274906 10330
GPS BIII-2  (PRN 18)    
1 44506U 19056A   22096.79125175 -.00000088  00000+0  00000+0 0  9991
2 44506  55.6471  31.8988 0021696 181.9308  19.3233  2.00571547 19338
BEIDOU-3 M23 (C45)      
1 44542U 19061A   22096.24491530  .00000014  00000+0  00000+0 0  9996
2 44542  54.6073 234.5634 0007548 347.2937  12.6523  1.86231310 17240
BEIDOU-3 M24 (C46)      
1 44543U 19061B   22096.02634266  .00000014  00000+0  00000+0 0  9998
2 44543  54.6069 234.5394 0004800 347.1141 137.4982  1.86231609 17238
BEIDOU-3 IGSO-3         
1 44709U 19073A   22096.76949103 -.00000158  00000+0  00000+0 0  9995
2 44709  57.3800 297.1224 0021053 172.3031 122.1493  1.00277752  9084
BEIDOU-3 M21            
1 44793U 19078A   22096.68321859 -.00000110  00000+0  10000-3 0  9999
2 44793  54.9947 353.0890 0007581   7.6974  30.7928  1.86232106 16116
BEIDOU-3 M22            
1 44794U 19078B   22097.05292609 -.00000108  00000+0  00000+0 0  9994
2 44794  54.9693 353.0671 0005517   3.7894 194.1064  1.86232667 16115
COSMOS 2544 (759)       
1 44850U 19088A   22095.89331877  .00000030  00000+0  00000+0 0  9992
2 44850  64.9364 125.1255 0014344 262.4631  49.7537  2.13102322 18028
BEIDOU-3 M19            
1 44864U 19090A   22097.15086093  .00000020  00000+0  00000+0 0  9997
2 44864  55.3717 113.9637 0018774 270.3445 187.7122  1.86231801 15709
BEIDOU-3 M20            
1 44865U 19090B   22096.90542309  .00000018  00000+0  00000+0 0  9994
2 44865  55.3737 114.0033 0017126 283.3107 100.0703  1.86231751 15676
BEIDOU-3 G2             
1 45344U 20017A   22097.12303102 -.00000143  00000+0  00000+0 0  9999
2 45344   2.1190 348.5600 0003097  79.6714 251.4627  1.00272545  7903
COSMOS 2545 (760)       
1 45358U 20018A   22096.35699627 -.00000088  00000+0  00000+0 0  9997
2 45358  64.9215   5.7967 0008598 261.4420 256.0715  2.13102665 15993
BEIDOU-3 G3             
1 45807U 20040A   22096.97687591 -.00000356  00000+0  00000+0 0  9994
2 45807   1.6059 301.4301 0007187 345.1018  10.8649  1.00267535  6715
GPS BIII-3  (PRN 23)    
1 45854U 20041A   22097.10533784  .00000003  00000+0  00000+0 0  9995
2 45854  55.4698  89.1544 0020184 178.4868 187.1340  2.00560032 13302
